[{"OBJECT_NAME":"NUSAT-44 (MARIA MITCHELL)","OBJECT_ID":"2024-043AA","EPOCH":"2026-03-09T22:12:18.524160","MEAN_MOTION":15.29764305,"ECCENTRICITY":0.0007331,"INCLINATION":97.5299,"RA_OF_ASC_NODE":207.7691,"ARG_OF_PERICENTER":214.9017,"MEAN_ANOMALY":145.1743,"EPHEMERIS_TYPE":0,"CLASSIFICATION_TYPE":"U","NORAD_CAT_ID":59122,"ELEMENT_SET_NO":999,"REV_AT_EPOCH":11209,"BSTAR":0.00061063193,"MEAN_MOTION_DOT":0.00017562,"MEAN_MOTION_DDOT":0},{"OBJECT_NAME":"STARLINK-31546","OBJECT_ID":"2024-068R","EPOCH":"2026-03-08T23:09:14.990976","MEAN_MOTION":15.27574269,"ECCENTRICITY":9.102e-5,"INCLINATION":43.0063,"RA_OF_ASC_NODE":34.9991,"ARG_OF_PERICENTER":273.1701,"MEAN_ANOMALY":86.9046,"EPHEMERIS_TYPE":0,"CLASSIFICATION_TYPE":"U","NORAD_CAT_ID":59470,"ELEMENT_SET_NO":999,"REV_AT_EPOCH":10845,"BSTAR":-2.5522893e-5,"MEAN_MOTION_DOT":-9.64e-6,"MEAN_MOTION_DDOT":0}]
